start=new Date('2022-04-10T00:00:00.000Z').valueOf();
sats=[{"RA_OF_ASC_NODE":"211.3069","OBJECT_ID":"2021-021BL","FILE":"3395351","ELEMENT_SET_NO":"999","MEAN_MOTION":"15.06402936","MEAN_ANOMALY":"301.6922","MEAN_MOTION_DDOT":"0.0000000000000","CLASSIFICATION_TYPE":"U","SEMIMAJOR_AXIS":"6925.340","APOAPSIS":"548.336","REV_AT_EPOCH":"6065","EPOCH":"2022-04-09T15:41:48.230880","INCLINATION":"53.0546","TLE_LINE1":"1 47918U 21021BL  22099.65403045  .00000463  00000-0  49996-4 0  9998","REF_FRAME":"TEME","GP_ID":"200863397","ECCENTRICITY":"0.00016340","DECAY_DATE":null,"NORAD_CAT_ID":"47918","EPHEMERIS_TYPE":"0","RCS_SIZE":"LARGE","TIME_SYSTEM":"UTC","MEAN_ELEMENT_THEORY":"SGP4","BSTAR":"0.00004999600000","SITE":"AFETR","OBJECT_TYPE":"PAYLOAD","MEAN_MOTION_DOT":"0.00000463","ARG_OF_PERICENTER":"58.4227","COUNTRY_CODE":"US","PERIOD":"95.592","OBJECT_NAME":"STARLINK-2398","LAUNCH_DATE":"2021-03-14","TLE_LINE2":"2 47918  53.0546 211.3069 0001634  58.4227 301.6922 15.06402936 60654","PERIAPSIS":"546.073","CENTER_NAME":"EARTH"},{"TLE_LINE2":"2 47919  53.0537 220.4634 0001996  33.0117 327.0997 15.06393280 60523","PERIAPSIS":"545.852","CENTER_NAME":"EARTH","LAUNCH_DATE":"2021-03-14","OBJECT_NAME":"STARLINK-2405","PERIOD":"95.593","COUNTRY_CODE":"US","ARG_OF_PERICENTER":"33.0117","OBJECT_TYPE":"PAYLOAD","MEAN_MOTION_DOT":"-0.00001479","SITE":"AFETR","MEAN_ELEMENT_THEORY":"SGP4","BSTAR":"-0.00008038900000","RCS_SIZE":"LARGE","TIME_SYSTEM":"UTC","EPHEMERIS_TYPE":"0","NORAD_CAT_ID":"47919","DECAY_DATE":null,"ECCENTRICITY":"0.00019960","GP_ID":"200863627","INCLINATION":"53.0537","TLE_LINE1":"1 47919U 21021BM  22099.83740512 -.00001479  00000-0 -80389-4 0  9993","REF_FRAME":"TEME","EPOCH":"2022-04-09T20:05:51.802368","REV_AT_EPOCH":"6052","APOAPSIS":"548.616","SEMIMAJOR_AXIS":"6925.369","MEAN_MOTION_DDOT":"0.0000000000000","CLASSIFICATION_TYPE":"U","MEAN_ANOMALY":"327.0997","FILE":"3395351","ELEMENT_SET_NO":"999","MEAN_MOTION":"15.06393280","OBJECT_ID":"2021-021BM","RA_OF_ASC_NODE":"220.4634"},{"SITE":"AFETR","BSTAR":"0.00002385800000","MEAN_ELEMENT_THEORY":"SGP4","TIME_SYSTEM":"UTC","RCS_SIZE":"LARGE","EPHEMERIS_TYPE":"0","NORAD_CAT_ID":"47977","ARG_OF_PERICENTER":"63.8225","MEAN_MOTION_DOT":"0.00000074","OBJECT_TYPE":"PAYLOAD","PERIOD":"95.592","COUNTRY_CODE":"US","CENTER_NAME":"EARTH","TLE_LINE2":"2 47977  53.0558 265.4314 0001618  63.8225 296.2931 15.06405444 59198","PERIAPSIS":"546.076","LAUNCH_DATE":"2021-03-24","OBJECT_NAME":"STARLINK-2087","FILE":"3395351","MEAN_ANOMALY":"296.2931","ELEMENT_SET_NO":"999","MEAN_MOTION":"15.06405444","OBJECT_ID":"2021-024A","RA_OF_ASC_NODE":"265.4314","SEMIMAJOR_AXIS":"6925.332","CLASSIFICATION_TYPE":"U","MEAN_MOTION_DDOT":"0.0000000000000","EPOCH":"2022-04-09T20:18:28.366560","REV_AT_EPOCH":"5919","APOAPSIS":"548.317","DECAY_DATE":null,"GP_ID":"200861909","ECCENTRICITY":"0.00016180","TLE_LINE1":"1 47977U 21024A   22099.84616165  .00000074  00000-0  23858-4 0  9993","INCLINATION":"53.0558","REF_FRAME":"TEME"},{"COUNTRY_CODE":"US","PERIOD":"95.592","OBJECT_NAME":"STARLINK-1647","LAUNCH_DATE":"2021-03-24","CENTER_NAME":"EARTH","TLE_LINE2":"2 47978  53.0533 275.3348 0001627  64.4502 295.6655 15.06397285 59058","PERIAPSIS":"546.095","EPHEMERIS_TYPE":"0","NORAD_CAT_ID":"47978","RCS_SIZE":"LARGE","TIME_SYSTEM":"UTC","BSTAR":"0.00012358000000","MEAN_ELEMENT_THEORY":"SGP4","SITE":"AFETR","MEAN_MOTION_DOT":"0.00001560","OBJECT_TYPE":"PAYLOAD","ARG_OF_PERICENTER":"64.4502","APOAPSIS":"548.349","REV_AT_EPOCH":"5905","EPOCH":"2022-04-09T20:48:59.469408","TLE_LINE1":"1 47978U 21024B   22099.86735497  .00001560  00000-0  12358-3 0  9999","REF_FRAME":"TEME","INCLINATION":"53.0533","ECCENTRICITY":"0.00016270","GP_ID":"200862662","DECAY_DATE":null,"RA_OF_ASC_NODE":"275.3348","OBJECT_ID":"2021-024B","MEAN_ANOMALY":"295.6655","FILE":"3395351","ELEMENT_SET_NO":"999","MEAN_MOTION":"15.06397285","MEAN_MOTION_DDOT":"0.0000000000000","CLASSIFICATION_TYPE":"U","SEMIMAJOR_AXIS":"6925.357"},{"EPHEMERIS_TYPE":"0","NORAD_CAT_ID":"47979","RCS_SIZE":"LARGE","TIME_SYSTEM":"UTC","BSTAR":"-0.00048859000000","MEAN_ELEMENT_THEORY":"SGP4","SITE":"AFETR","MEAN_MOTION_DOT":"-0.00007553","OBJECT_TYPE":"PAYLOAD","ARG_OF_PERICENTER":"49.1087","COUNTRY_CODE":"US","PERIOD":"95.592","OBJECT_NAME":"STARLINK-2325","LAUNCH_DATE":"2021-03-24","CENTER_NAME":"EARTH","PERIAPSIS":"546.049","TLE_LINE2":"2 47979  53.0530 210.1080 0001657  49.1087 201.2516 15.06405655  3607","RA_OF_ASC_NODE":"210.1080","OBJECT_ID":"2021-024C","MEAN_ANOMALY":"201.2516","FILE":"3395351","ELEMENT_SET_NO":"999","MEAN_MOTION":"15.06405655","CLASSIFICATION_TYPE":"U","MEAN_MOTION_DDOT":"0.0000000000000","SEMIMAJOR_AXIS":"6925.331","APOAPSIS":"548.344","REV_AT_EPOCH":"360","EPOCH":"2022-04-09T22:00:00.999936","TLE_LINE1":"1 47979U 21024C   22099.91667824 -.00007553  00000-0 -48859-3 0  9999","INCLINATION":"53.0530","REF_FRAME":"TEME","ECCENTRICITY":"0.00016570","GP_ID":"200863404","DECAY_DATE":null},{"RA_OF_ASC_NODE":"190.1238","OBJECT_ID":"2021-024D","MEAN_ANOMALY":"155.3851","FILE":"3395351","ELEMENT_SET_NO":"999","MEAN_MOTION":"15.06395805","CLASSIFICATION_TYPE":"U","MEAN_MOTION_DDOT":"0.0000000000000","SEMIMAJOR_AXIS":"6925.361","APOAPSIS":"548.559","REV_AT_EPOCH":"360","EPOCH":"2022-04-09T22:00:00.999936","TLE_LINE1":"1 47980U 21024D   22099.91667824 -.00027183  00000-0 -18131-2 0  9991","INCLINATION":"53.0554","REF_FRAME":"TEME","ECCENTRICITY":"0.00019240","GP_ID":"200863634","DECAY_DATE":null,"EPHEMERIS_TYPE":"0","NORAD_CAT_ID":"47980","RCS_SIZE":"LARGE","TIME_SYSTEM":"UTC","MEAN_ELEMENT_THEORY":"SGP4","BSTAR":"-0.00181310000000","SITE":"AFETR","OBJECT_TYPE":"PAYLOAD","MEAN_MOTION_DOT":"-0.00027183","ARG_OF_PERICENTER":"44.9723","COUNTRY_CODE":"US","PERIOD":"95.592","OBJECT_NAME":"STARLINK-2312","LAUNCH_DATE":"2021-03-24","PERIAPSIS":"545.894","TLE_LINE2":"2 47980  53.0554 190.1238 0001924  44.9723 155.3851 15.06395805  3600","CENTER_NAME":"EARTH"},{"EPOCH":"2022-04-09T20:33:05.272992","REV_AT_EPOCH":"5905","APOAPSIS":"548.345","DECAY_DATE":null,"ECCENTRICITY":"0.00015700","GP_ID":"200862409","INCLINATION":"53.0541","TLE_LINE1":"1 47981U 21024E   22099.85631103 -.00000617  00000-0 -22530-4 0  9999","REF_FRAME":"TEME","FILE":"3395351","ELEMENT_SET_NO":"999","MEAN_MOTION":"15.06385625","MEAN_ANOMALY":"301.4221","RA_OF_ASC_NODE":"275.3895","OBJECT_ID":"2021-024E","SEMIMAJOR_AXIS":"6925.393","CLASSIFICATION_TYPE":"U","MEAN_MOTION_DDOT":"0.0000000000000","PERIOD":"95.593","COUNTRY_CODE":"US","CENTER_NAME":"EARTH","TLE_LINE2":"2 47981  53.0541 275.3895 0001570  58.6921 301.4221 15.06385625 59055","PERIAPSIS":"546.170","LAUNCH_DATE":"2021-03-24","OBJECT_NAME":"STARLINK-2303","SITE":"AFETR","BSTAR":"-0.00002253000000","MEAN_ELEMENT_THEORY":"SGP4","RCS_SIZE":"LARGE","TIME_SYSTEM":"UTC","EPHEMERIS_TYPE":"0","NORAD_CAT_ID":"47981","ARG_OF_PERICENTER":"58.6921","MEAN_MOTION_DOT":"-0.00000617","OBJECT_TYPE":"PAYLOAD"},{"ECCENTRICITY":"0.00021380","GP_ID":"200862163","DECAY_DATE":null,"TLE_LINE1":"1 47982U 21024F   22099.91667824 -.00008002  00000-0 -51874-3 0  9994","INCLINATION":"53.0531","REF_FRAME":"TEME","REV_AT_EPOCH":"360","EPOCH":"2022-04-09T22:00:00.999936","APOAPSIS":"548.671","SEMIMAJOR_AXIS":"6925.325","MEAN_MOTION_DDOT":"0.0000000000000","CLASSIFICATION_TYPE":"U","RA_OF_ASC_NODE":"205.1110","OBJECT_ID":"2021-024F","ELEMENT_SET_NO":"999","FILE":"3395351","MEAN_MOTION":"15.06407550","MEAN_ANOMALY":"38.8606","LAUNCH_DATE":"2021-03-24","CENTER_NAME":"EARTH","TLE_LINE2":"2 47982  53.0531 205.1110 0002138  33.8568  38.8606 15.06407550  3609","PERIAPSIS":"545.710","OBJECT_NAME":"STARLINK-2317","PERIOD":"95.592","COUNTRY_CODE":"US","ARG_OF_PERICENTER":"33.8568","MEAN_MOTION_DOT":"-0.00008002","OBJECT_TYPE":"PAYLOAD","BSTAR":"-0.00051874000000","MEAN_ELEMENT_THEORY":"SGP4","SITE":"AFETR","EPHEMERIS_TYPE":"0","NORAD_CAT_ID":"47982","TIME_SYSTEM":"UTC","RCS_SIZE":"LARGE"},{"OBJECT_NAME":"STARLINK-2308","LAUNCH_DATE":"2021-03-24","TLE_LINE2":"2 47985  53.0540 210.1271 0001634  56.4987  73.8271 15.06400483  3607","PERIAPSIS":"546.080","CENTER_NAME":"EARTH","COUNTRY_CODE":"US","PERIOD":"95.592","OBJECT_TYPE":"PAYLOAD","MEAN_MOTION_DOT":"-0.00022159","ARG_OF_PERICENTER":"56.4987","EPHEMERIS_TYPE":"0","NORAD_CAT_ID":"47985","RCS_SIZE":"LARGE","TIME_SYSTEM":"UTC","MEAN_ELEMENT_THEORY":"SGP4","BSTAR":"-0.00147330000000","SITE":"AFETR","TLE_LINE1":"1 47985U 21024J   22099.91667824 -.00022159  00000-0 -14733-2 0  9998","INCLINATION":"53.0540","REF_FRAME":"TEME","ECCENTRICITY":"0.00016340","GP_ID":"200862905","DECAY_DATE":null,"APOAPSIS":"548.344","REV_AT_EPOCH":"360","EPOCH":"2022-04-09T22:00:00.999936","CLASSIFICATION_TYPE":"U","MEAN_MOTION_DDOT":"0.0000000000000","SEMIMAJOR_AXIS":"6925.347","RA_OF_ASC_NODE":"210.1271","OBJECT_ID":"2021-024J","MEAN_MOTION":"15.06400483","FILE":"3395351","ELEMENT_SET_NO":"999","MEAN_ANOMALY":"73.8271"},{"TLE_LINE2":"2 47988  53.0513 222.2688 0004302 300.5789  59.4806 15.76877331 59730","PERIAPSIS":"336.406","CENTER_NAME":"EARTH","LAUNCH_DATE":"2021-03-24","OBJECT_NAME":"STARLINK-2306","PERIOD":"91.320","COUNTRY_CODE":"US","ARG_OF_PERICENTER":"300.5789","OBJECT_TYPE":"PAYLOAD","MEAN_MOTION_DOT":"0.00187527","SITE":"AFETR","MEAN_ELEMENT_THEORY":"SGP4","BSTAR":"0.00111680000000","TIME_SYSTEM":"UTC","RCS_SIZE":"LARGE","EPHEMERIS_TYPE":"0","NORAD_CAT_ID":"47988","DECAY_DATE":null,"GP_ID":"200863135","ECCENTRICITY":"0.00043020","TLE_LINE1":"1 47988U 21024M   22099.81554808  .00187527  00000-0  11168-2 0  9995","INCLINATION":"53.0513","REF_FRAME":"TEME","EPOCH":"2022-04-09T19:34:23.354112","REV_AT_EPOCH":"5973","APOAPSIS":"342.186","SEMIMAJOR_AXIS":"6717.431","CLASSIFICATION_TYPE":"U","MEAN_MOTION_DDOT":"0.0000000000000","FILE":"3395351","ELEMENT_SET_NO":"999","MEAN_MOTION":"15.76877331","MEAN_ANOMALY":"59.4806","RA_OF_ASC_NODE":"222.2688","OBJECT_ID":"2021-024M"}];
